ONEWEB-0549             
1 56051U 23043F   25322.42697715  .00000079  00000+0  16062-3 0  9997
2 56051  87.9185 286.0281 0002158  80.1526 279.9852 13.21826474130387
ONEWEB-0550             
1 56052U 23043G   25322.41381412  .00000068  00000+0  13307-3 0  9998
2 56052  87.9189 286.0253 0001780  86.8232 273.3106 13.21827728130381
ONEWEB-0551             
1 56053U 23043H   25322.47643093  .00000211  00000+0  52632-3 0  9995
2 56053  87.8964 301.2805 0002070  86.4131 273.7236 13.15546919128694
ONEWEB-0552             
1 56054U 23043J   25322.40888771 -.00000051  00000+0 -15411-3 0  9991
2 56054  87.9186 286.0353 0002130  87.3926 272.7451 13.21825082130384
ONEWEB-0553             
1 56055U 23043K   25322.36635147  .00000014  00000+0  30716-5 0  9998
2 56055  87.9013 270.7579 0001543  73.4126 286.7175 13.16593751131231
ONEWEB-0554             
1 56056U 23043L   25322.35370223 -.00000934  00000+0 -24762-2 0  9993
2 56056  87.9007 270.7772 0001507  86.8344 273.2960 13.16598723131215
ONEWEB-0555             
1 56057U 23043M   25322.39168713  .00000086  00000+0  19265-3 0  9996
2 56057  87.9021 270.7471 0001407  68.9972 291.1310 13.16592733131229
ONEWEB-0557             
1 56058U 23043N   25322.40594869  .00000063  00000+0  13079-3 0  9996
2 56058  87.9017 270.7581 0000800 116.1835 243.9378 13.16594432131224
